CCSDS_OMM_VERS,COMMENT,CREATION_DATE,ORIGINATOR,OBJECT_NAME,OBJECT_ID,CENTER_NAME,REF_FRAME,TIME_SYSTEM,MEAN_ELEMENT_THEORY,EPOCH,MEAN_MOTION,ECCENTRICITY,INCLINATION,RA_OF_ASC_NODE,ARG_OF_PERICENTER,MEAN_ANOMALY,EPHEMERIS_TYPE,CLASSIFICATION_TYPE,NORAD_CAT_ID,ELEMENT_SET_NO,REV_AT_EPOCH,BSTAR,MEAN_MOTION_DOT,MEAN_MOTION_DDOT,SEMIMAJOR_AXIS,PERIOD,APOAPSIS,PERIAPSIS,OBJECT_TYPE,RCS_SIZE,COUNTRY_CODE,LAUNCH_DATE,SITE,DECAY_DATE,FILE,GP_ID,TLE_LINE0,TLE_LINE1,TLE_LINE2
2,GENERATED VIA SPACE-TRACK.ORG API,2021-01-30T06:36:09,18 SPCS,STARLINK-1098,2020-001D,EARTH,TEME,UTC,SGP4,2021-01-30T04:06:25.287264,15.05600918,9.48e-05,53.0011,76.7681,88.9992,271.1104,0,U,44917,999,5882,-0.00029901,-4.635e-05,0,6927.798,95.642,550.32,549.006,PAYLOAD,LARGE,US,2020-01-07,AFETR,,2944383,170679166,0 STARLINK-1098,1 44917U 20001D   21030.17112601 -.00004635  00000-0 -29901-3 0  9997,2 44917  53.0011  76.7681 0000948  88.9992 271.1104 15.05600918 58822
2,GENERATED VIA SPACE-TRACK.ORG API,2021-01-30T11:46:10,18 SPCS,STARLINK-1098,2020-001D,EARTH,TEME,UTC,SGP4,2021-01-30T08:53:12.115104,15.05576693,0.0001084,53.0013,75.8743,92.0676,268.0436,0,U,44917,999,5885,6.2038e-05,6.25e-06,0,6927.873,95.644,550.489,548.987,PAYLOAD,LARGE,US,2020-01-07,AFETR,,2944529,170681948,0 STARLINK-1098,1 44917U 20001D   21030.37027911  .00000625  00000-0  62038-4 0  9990,2 44917  53.0013  75.8743 0001084  92.0676 268.0436 15.05576693 58858
2,GENERATED VIA SPACE-TRACK.ORG API,2021-01-30T19:48:25,18 SPCS,STARLINK-1098,2020-001D,EARTH,TEME,UTC,SGP4,2021-01-30T12:04:23.041344,15.05577132,0.0001078,53.0012,75.2783,91.1727,268.9384,0,U,44917,999,5887,6.1568e-05,6.18e-06,0,6927.871,95.644,550.483,548.989,PAYLOAD,LARGE,US,2020-01-07,AFETR,,2944556,170703050,0 STARLINK-1098,1 44917U 20001D   21030.50304446  .00000618  00000-0  61568-4 0  9995,2 44917  53.0012  75.2783 0001078  91.1727 268.9384 15.05577132 58877
2,GENERATED VIA SPACE-TRACK.ORG API,2021-02-01T04:49:12,18 SPCS,STARLINK-1098,2020-001D,EARTH,TEME,UTC,SGP4,2021-01-31T11:58:14.744064,15.05581704,0.0001065,53.0011,70.8081,89.9761,270.1349,0,U,44917,999,5902,5.6123e-05,5.39e-06,0,6927.857,95.644,550.46,548.984,PAYLOAD,LARGE,US,2020-01-07,AFETR,,2944563,170770075,0 STARLINK-1098,1 44917U 20001D   21031.49878176  .00000539  00000-0  56123-4 0  9993,2 44917  53.0011  70.8081 0001065  89.9761 270.1349 15.05581704 59021
2,GENERATED VIA SPACE-TRACK.ORG API,2021-02-01T08:46:10,18 SPCS,STARLINK-1098,2020-001D,EARTH,TEME,UTC,SGP4,2021-02-01T02:18:33.712128,15.05583148,0.0001067,53.0013,68.1259,89.9772,270.1338,0,U,44917,999,5911,5.6621e-05,5.46e-06,0,6927.853,95.644,550.457,548.979,PAYLOAD,LARGE,US,2020-01-07,AFETR,,2945138,170784776,0 STARLINK-1098,1 44917U 20001D   21032.09622352  .00000546  00000-0  56621-4 0  9994,2 44917  53.0013  68.1259 0001067  89.9772 270.1338 15.05583148 59116
2,GENERATED VIA SPACE-TRACK.ORG API,2021-02-01T18:51:17,18 SPCS,STARLINK-1098,2020-001D,EARTH,TEME,UTC,SGP4,2021-02-01T11:52:03.053856,15.05625661,9.87e-05,53.0013,66.3379,99.6948,260.4152,0,U,44917,999,5917,0.00041918,5.841e-05,0,6927.722,95.641,550.271,548.904,PAYLOAD,LARGE,US,2020-01-07,AFETR,,2945362,170809774,0 STARLINK-1098,1 44917U 20001D   21032.49447979  .00005841  00000-0  41918-3 0  9993,2 44917  53.0013  66.3379 0000987  99.6948 260.4152 15.05625661 59171
2,GENERATED VIA SPACE-TRACK.ORG API,2021-02-01T14:56:09,18 SPCS,STARLINK-1098,2020-001D,EARTH,TEME,UTC,SGP4,2021-02-01T11:52:03.053856,15.05625661,9.87e-05,53.0013,66.3379,99.6948,260.4152,0,U,44917,999,5917,0.00041918,5.841e-05,0,6927.722,95.641,550.271,548.904,PAYLOAD,LARGE,US,2020-01-07,AFETR,,2945324,170789216,0 STARLINK-1098,1 44917U 20001D   21032.49447979  .00005841  00000-0  41918-3 0  9993,2 44917  53.0013  66.3379 0000987  99.6948 260.4152 15.05625661 59171
2,GENERATED VIA SPACE-TRACK.ORG API,2021-02-01T22:36:09,18 SPCS,STARLINK-1098,2020-001D,EARTH,TEME,UTC,SGP4,2021-02-01T18:14:15.611424,15.05731953,0.000187,53.0013,65.1457,87.6471,272.4731,0,U,44917,999,5921,0.0013224,0.00019119,0,6927.396,95.634,550.557,547.966,PAYLOAD,LARGE,US,2020-01-07,AFETR,,2945486,170814283,0 STARLINK-1098,1 44917U 20001D   21032.75990291  .00019119  00000-0  13224-2 0  9993,2 44917  53.0013  65.1457 0001870  87.6471 272.4731 15.05731953 59218
2,GENERATED VIA SPACE-TRACK.ORG API,2021-02-02T14:56:10,18 SPCS,STARLINK-1098,2020-001D,EARTH,TEME,UTC,SGP4,2021-02-02T08:34:05.489472,15.06004323,0.000122,53.0013,62.4614,86.6344,273.4784,0,U,44917,999,5930,0.0033996,0.00050178,0,6926.561,95.617,549.271,547.581,PAYLOAD,LARGE,US,2020-01-07,AFETR,,2945879,170823543,0 STARLINK-1098,1 44917U 20001D   21033.35700798  .00050178  00000-0  33996-2 0  9999,2 44917  53.0013  62.4614 0001220  86.6344 273.4784 15.06004323 59304
2,GENERATED VIA SPACE-TRACK.ORG API,2021-02-02T21:10:33,18 SPCS,STARLINK-1098,2020-001D,EARTH,TEME,UTC,SGP4,2021-02-02T13:20:46.404960,15.06026138,0.0001173,53.0013,61.5671,84.5218,275.5904,0,U,44917,999,5933,0.0034019,0.00050242,0,6926.495,95.616,549.172,547.547,PAYLOAD,LARGE,US,2020-01-07,AFETR,,2946041,170867536,0 STARLINK-1098,1 44917U 20001D   21033.55609265  .00050242  00000-0  34019-2 0  9997,2 44917  53.0013  61.5671 0001173  84.5218 275.5904 15.06026138 59339
2,GENERATED VIA SPACE-TRACK.ORG API,2021-02-03T06:46:10,18 SPCS,STARLINK-1098,2020-001D,EARTH,TEME,UTC,SGP4,2021-02-03T02:05:13.763904,15.06078217,0.000122,53.0017,59.182,86.7289,273.3838,0,U,44917,999,5941,0.0033248,0.00049159,0,6926.335,95.613,549.045,547.355,PAYLOAD,LARGE,US,2020-01-07,AFETR,,2947290,170918451,0 STARLINK-1098,1 44917U 20001D   21034.08696486  .00049159  00000-0  33248-2 0  9995,2 44917  53.0017  59.1820 0001220  86.7289 273.3838 15.06078217 59413
2,GENERATED VIA SPACE-TRACK.ORG API,2021-02-03T18:58:31,18 SPCS,STARLINK-1098,2020-001D,EARTH,TEME,UTC,SGP4,2021-02-03T11:38:32.690976,15.06120092,0.0001218,53.0022,57.3931,77.7558,282.3566,0,U,44917,999,5947,0.0032496,0.00048088,0,6926.207,95.61,548.915,547.228,PAYLOAD,LARGE,US,2020-01-07,AFETR,,2948758,170972946,0 STARLINK-1098,1 44917U 20001D   21034.48510059  .00048088  00000-0  32496-2 0  9994,2 44917  53.0022  57.3931 0001218  77.7558 282.3566 15.06120092 59471
2,GENERATED VIA SPACE-TRACK.ORG API,2021-02-03T14:56:11,18 SPCS,STARLINK-1098,2020-001D,EARTH,TEME,UTC,SGP4,2021-02-03T11:38:32.690976,15.06120092,0.0001218,53.0022,57.3931,77.7558,282.3566,0,U,44917,999,5947,0.0032496,0.00048088,0,6926.207,95.61,548.915,547.228,PAYLOAD,LARGE,US,2020-01-07,AFETR,,2948615,170950073,0 STARLINK-1098,1 44917U 20001D   21034.48510059  .00048088  00000-0  32496-2 0  9994,2 44917  53.0022  57.3931 0001218  77.7558 282.3566 15.06120092 59471
2,GENERATED VIA SPACE-TRACK.ORG API,2021-02-04T02:23:48,18 SPCS,STARLINK-1098,2020-001D,EARTH,TEME,UTC,SGP4,2021-02-03T18:00:44.642880,15.06152786,0.0001256,53.0026,56.2008,80.4856,279.6274,0,U,44917,999,5951,0.0032616,0.00048311,0,6926.106,95.608,548.841,547.101,PAYLOAD,LARGE,US,2020-01-07,AFETR,,2949089,171000758,0 STARLINK-1098,1 44917U 20001D   21034.75051670  .00048311  00000-0  32616-2 0  9996,2 44917  53.0026  56.2008 0001256  80.4856 279.6274 15.06152786 59517
2,GENERATED VIA SPACE-TRACK.ORG API,2021-02-03T22:46:10,18 SPCS,STARLINK-1098,2020-001D,EARTH,TEME,UTC,SGP4,2021-02-03T18:00:44.642880,15.06152786,0.0001256,53.0026,56.2008,80.4856,279.6274,0,U,44917,999,5951,0.0032616,0.00048311,0,6926.106,95.608,548.841,547.101,PAYLOAD,LARGE,US,2020-01-07,AFETR,,2949046,170980331,0 STARLINK-1098,1 44917U 20001D   21034.75051670  .00048311  00000-0  32616-2 0  9996,2 44917  53.0026  56.2008 0001256  80.4856 279.6274 15.06152786 59517
2,GENERATED VIA SPACE-TRACK.ORG API,2021-02-04T06:56:10,18 SPCS,STARLINK-1098,2020-001D,EARTH,TEME,UTC,SGP4,2021-02-04T01:58:26.872608,15.06267891,0.0001279,53.0026,54.7092,95.5804,264.533,0,U,44917,999,5956,0.001911,0.00028196,0,6925.753,95.601,548.504,546.733,PAYLOAD,LARGE,US,2020-01-07,AFETR,,2949360,171009879,0 STARLINK-1098,1 44917U 20001D   21035.08225547  .00028196  00000-0  19110-2 0  9992,2 44917  53.0026  54.7092 0001279  95.5804 264.5330 15.06267891 59563
2,GENERATED VIA SPACE-TRACK.ORG API,2021-02-05T04:44:19,18 SPCS,STARLINK-1098,2020-001D,EARTH,TEME,UTC,SGP4,2021-02-04T08:20:34.728288,15.06369714,0.0001251,53.006,53.517,89.8734,270.2397,0,U,44917,999,5960,0.00038985,5.525e-05,0,6925.441,95.594,548.173,546.44,PAYLOAD,LARGE,US,2020-01-07,AFETR,,2950145,171067414,0 STARLINK-1098,1 44917U 20001D   21035.34762417  .00005525  00000-0  38985-3 0  9996,2 44917  53.0060  53.5170 0001251  89.8734 270.2397 15.06369714 59602
2,GENERATED VIA SPACE-TRACK.ORG API,2021-02-04T20:00:05,18 SPCS,STARLINK-1098,2020-001D,EARTH,TEME,UTC,SGP4,2021-02-04T08:20:34.734336,15.0636739,0.000128,53.0057,53.5159,87.55,272.5635,0,U,44917,999,5960,0.0005069,7.27e-05,0,6925.449,95.594,548.2,546.427,PAYLOAD,LARGE,US,2020-01-07,AFETR,,2949798,171039491,0 STARLINK-1098,1 44917U 20001D   21035.34762424  .00007270  00000-0  50690-3 0  9990,2 44917  53.0057  53.5159 0001280  87.5500 272.5635 15.06367390 59601
2,GENERATED VIA SPACE-TRACK.ORG API,2021-02-04T14:56:10,18 SPCS,STARLINK-1098,2020-001D,EARTH,TEME,UTC,SGP4,2021-02-04T08:20:34.734336,15.0636739,0.000128,53.0057,53.5159,87.55,272.5635,0,U,44917,999,5960,0.0005069,7.27e-05,0,6925.449,95.594,548.2,546.427,PAYLOAD,LARGE,US,2020-01-07,AFETR,,2949735,171017474,0 STARLINK-1098,1 44917U 20001D   21035.34762424  .00007270  00000-0  50690-3 0  9990,2 44917  53.0057  53.5159 0001280  87.5500 272.5635 15.06367390 59601
2,GENERATED VIA SPACE-TRACK.ORG API,2021-02-05T06:56:10,18 SPCS,STARLINK-1098,2020-001D,EARTH,TEME,UTC,SGP4,2021-02-05T03:27:02.864160,15.06393142,3.29e-05,53.0036,49.9381,8.9651,351.1343,0,U,44917,999,5972,0.00022905,3.132e-05,0,6925.37,95.593,547.462,547.007,PAYLOAD,LARGE,US,2020-01-07,AFETR,,2950471,171078332,0 STARLINK-1098,1 44917U 20001D   21036.14378315  .00003132  00000-0  22905-3 0  9992,2 44917  53.0036  49.9381 0000329   8.9651 351.1343 15.06393142 59728
